#dP2018  1 12  0  0  0.00000000      96 __u+U ITR00 FIT  IAC
## 1983 432000.00000000   900.00000000 58130 0.0000000000000
+   88   C01C02C03C04C05C06C07C08C09C10C11C12C13C14E01E02E03
+        E04E05E07E08E09E11E12E14E18E19E24E26E30G01G02G03G04
+        G05G06G07G08G09G10G11G12G13G14G15G16G17G18G19G20G21
+        G22G23G24G25G26G27G28G29G30G31G32J01J02R01R02R03R04
+        R05R06R07R08R09R10R11R13R14R15R16R17R18R19R20R21R22
+        R23R24R26  0  0  0  0  0  0  0  0  0  0  0  0  0  0
++         0  0  0  0  0  0  0  0  0  0  0  0  0  0  0  0  0
++         0  0  0  0  0  0  0  0  0  0  0  0  0  0  0  0  0
++         0  0  0  0  0  0  0  0  0  0  0  0  0  0  0  0  0
++         0  0  0  0  0  0  0  0  0  0  0  0  0  0  0  0  0
++         0  0  0  0  0  0  0  0  0  0  0  0  0  0  0  0  0
++         0  0  0  0  0  0  0  0  0  0  0  0  0  0  0  0  0
%c M  cc GPS ccc cccc cccc cccc cccc ccccc ccccc ccccc ccccc
%c cc cc ccc ccc cccc cccc cccc cccc ccccc ccccc ccccc ccccc
%f  0.0000000  0.000000000  0.00000000000  0.000000000000000
%f  0.0000000  0.000000000  0.00000000000  0.000000000000000
%i    0    0    0    0      0      0      0      0         0
%i    0    0    0    0      0      0      0      0         0
/*                                                          
/*   RSA / INFORMATION & ANALYSIS CENTER (IAC) OF MCC       
/*   ULTRA-RAPID DETERMINATION                              
/* PCV:IGS14_1977 OL/AL:FES2004  NONE     YN ORB:CoN CLK:CoN
*  2018 01 12 19 15  0.00000000
PC01 -32298.279417  27090.195678    251.863300    231.256971
PC02   4416.691650  41936.277615    799.311677   -149.494303
PC03 -14781.392160  39507.571583   1015.244988   -296.647696
PC04 -39592.577842  14451.637118    485.299560   -193.892835
PC05  21883.757844  36052.149275    965.829028   -118.790948
PC06 -25141.619951  28926.396913 -17707.904459   -672.853307
PC07 -12069.037380  36032.361972 -17703.233967   -272.191766
PC08 -10375.348098  19765.417820  35857.446989    110.134721
PC09 -11537.248562  28826.913825 -28526.047412   -509.635780
PC10  -1452.557215  41701.164509  -4463.564940     60.788106
PC11  14826.368857 -11993.213250 -20342.100829   -350.145388
PC12  27396.363324   -933.153445  -5441.055921    370.814274
PC13   4452.061234  27303.003201  31911.135234   -142.250892
PC14  16686.054455 -22300.761916  -1041.804661    137.237854
PE01 -12230.498124 -21674.105378 -16020.314994   -251.593209
PE02  12243.157520  21666.020654  16039.872443      1.537199
PE03  14298.644764  10619.541533 -23647.655246     13.312749
PE04 -25690.769806   6008.433311  13419.919989     45.329076
PE05  -5512.487509  21075.855012 -20045.692407    342.989256
PE07  22056.934599 -19173.266045   4715.881239    103.110824
PE08  25576.551200  -6301.317746 -13513.606659   6662.622585
PE09 -21908.263394  19340.530155  -4669.388691   6905.372800
PE11 -15250.768868  10191.894691  23238.556223   1853.612833
PE12 -27179.256417  -4611.721489  10807.564545   3266.896275
PE14 -14906.041358 -17667.461042 -22909.801740   6648.965734
PE18  13179.464300  11819.727259  15385.908248   6508.923433
PE19 -12538.604034 -11883.529271  24032.372001     18.286196
PE24 -10692.830411  20246.305802 -18778.051400   6920.073074
PE26  -5297.892577 -19045.975674 -22019.392411   6393.551905
PE30  16252.126644    960.662631  24717.017036   6165.645567
PG01 -20260.001557 -10080.091874  13997.729770    -23.220332
PG02  13050.466961  22330.859972   7205.748665    230.018265
PG03 -15829.216534   -386.270915  21295.915354    -11.054253
PG04   7704.336388 -24997.897453  -3840.327130     31.402418
PG05   5531.926237  19869.570372 -16721.298674    -17.137810
PG06   3010.895762  21069.049343  15909.419330    414.715271
PG07 -14794.923565   5213.403640 -21284.352335    252.489036
PG08 -21411.166971  -6456.039091 -14370.285491    -87.435947
PG09 -24373.860887   8557.112237  -6234.945465    492.444973
PG10  10694.500022 -24149.508066  -1875.640489    144.997762
PG11 -24519.252505  -8286.119307   5091.476307   -733.778345
PG12  14172.098964   3832.161973  21950.351100    355.814489
PG13  14062.977590  12485.668721 -18870.023896    -95.296325
PG14   2594.119050 -15424.821109  21728.935985    -92.269395
PG15  22777.366684   4856.854411 -13319.882582   -357.362485
PG16  -3643.001868 -19345.678257 -17754.362478     34.160677
PG17 -12474.547174  14110.748869  19055.357122   -131.350060
PG18  15066.574762 -18071.098077 -11561.339214    633.572257
PG19  -4804.307201  14659.922213  21371.121427   -464.111282
PG20  15857.684060   2515.373472 -21306.049197    498.125195
PG21  12849.888786  -8372.332869 -20897.509510   -442.490316
PG22 -14015.514463  -8467.421291  21148.204041   -254.664469
PG23 -26278.580968    387.446482   5441.063617   -219.080981
PG24  21064.761657  11930.695398  11137.572271    -44.675210
PG25  16785.319704 -10502.935675  17426.022027   -521.257314
PG26   2905.093090 -24959.856679  -8404.446891   -289.888826
PG27  -9913.193868 -12876.358451 -21115.751940    362.170686
PG28 -13773.252552  22266.480608  -3934.248261    679.259134
PG29  26138.632129  -4040.619577  -2359.801870    512.083865
PG30  -8263.842142  14237.185373 -20812.071034    113.102976
PG31  -2993.799107 -21427.649367  15165.160189    149.096604
PG32  11163.150789 -15173.244629  18718.653895   -532.726674
PJ01 -31451.157784  26287.330750  14914.189001   -158.925172
PJ02 -17819.378870  23853.270605 -25565.312947 999999.999999
PR01   5630.983368   9950.551289 -22806.258776     20.584896
PR02  18146.233849  -6396.612524 -16690.744839    289.849190
PR03  18582.257938 -17434.037140   -562.812479    121.183091
PR04   7781.646852 -18155.057421  16139.204695    245.742871
PR05  -6999.725532  -8694.469272  22921.415901   -228.770433
PR06 -18466.301368   7306.699679  16008.110231    125.029352
PR07 -18529.551709  17555.207433    260.085805    -27.295451
PR08  -8375.632692  18323.856979 -15601.675992    -26.993223
PR09 -11976.023703  -4972.910698 -21962.865962     47.840666
PR10  -6347.721832  13959.226200 -20378.739072     15.789071
PR11   2676.407474  24568.113088  -6227.393354    -19.229734
PR13  11693.483239   3800.523830  22332.737609     -6.457160
PR14   6642.450326 -13805.228123  20410.336745     23.804479
PR15   -957.030315 -23547.007820   9636.523594     -5.133974
PR16 -10441.265455 -20630.652061 -10660.152286     83.127566
PR17  16267.745821  -4386.556931 -19151.400929    100.503405
PR18   -918.712817 -11209.221874 -22881.034483    180.842618
PR19 -17724.516778 -12176.675692 -13712.210309    -40.989996
PR20 -24471.070888  -5631.847743   4638.843470   -323.137471
PR21 -16012.013930   4492.355283  19338.142875     18.583540
PR22   2636.168016  11534.798978  22589.074302     -9.702742
PR23  20153.727036  11227.626767  10880.872851    129.887127
PR24  24481.147304   4871.217845  -5243.495481   -160.994446
PR26 -24542.812108  -5147.673895   4618.183085 999999.999999
EOF
